HORUS 1                 
1 55690U 23025A   23163.92374904  .00007878  00000+0  33399-3 0  9999
2 55690  97.4626 237.2757 0010612 225.4204 134.6167 15.23353527 16543
STARLINK-30050          
1 55695U 23026A   23163.89777069  .00004434  00000+0  37236-4 0  9990
2 55695  43.0009  12.2344 0003613 284.7435  75.3032 15.71362837 17685
STARLINK-30040          
1 55697U 23026C   23164.00001157  .00197904  00000+0  13061-2 0  9997
2 55697  43.0011   8.7024 0004519 275.0316  24.2082 15.74229347  1303
STARLINK-30061          
1 55698U 23026D   23164.00001157  .00435632  81517-4  11912-2 0  9991
2 55698  42.9946   7.5000 0015538 284.4393 133.4128 15.93038280  1301
STARLINK-30055          
1 55699U 23026E   23163.88838599 -.00015358  00000+0 -11411-3 0  9994
2 55699  43.0009  12.1453 0002411 278.6916  81.3678 15.71305414 17681
STARLINK-30064          
1 55700U 23026F   23163.89747341 -.00001063  00000+0 -46474-5 0  9999
2 55700  43.0021  12.2276 0002668 303.0502  57.0110 15.71366091 17689
STARLINK-30065          
1 55701U 23026G   23163.89504128  .00003346  00000+0  28932-4 0  9996
2 55701  43.0032  12.2103 0002106 288.6455  71.4184 15.71372553 17684
STARLINK-30042          
1 55702U 23026H   23163.93140787  .00000736  00000+0  34633-4 0  9994
2 55702  43.0049  35.3226 0001662 268.0873  91.9789 15.29238962 17425
STARLINK-30044          
1 55703U 23026J   23163.88865193  .02280191  90361-5  59409-3 0  9993
2 55703  42.9862   1.9302 0018174 289.6059 164.4726 16.27092875 17621
STARLINK-30051          
1 55704U 23026K   23163.92695559  .00001693  00000+0  67661-4 0  9997
2 55704  42.9996  35.2988 0002302 271.9835  88.0754 15.29246203 17429
STARLINK-30057          
1 55705U 23026L   23163.89443724 -.00047001  00000+0 -35799-3 0  9990
2 55705  43.0002  12.2045 0003192 295.1395  64.9141 15.71282105 17685
STARLINK-30060          
1 55707U 23026N   23163.89474753 -.00005767  00000+0 -40576-4 0  9991
2 55707  43.0009  12.2110 0003226 294.0807  65.9723 15.71334320 17685
STARLINK-30058          
1 55708U 23026P   23163.91980030 -.00000463  00000+0 -67541-5 0  9995
2 55708  43.0007  35.2453 0002097 266.4385  93.6228 15.29249151 17428
STARLINK-30047          
1 55709U 23026Q   23163.89412827  .00006660  00000+0  54179-4 0  9992
2 55709  43.0020  12.1947 0003537 297.2557  62.7950 15.71361512 17689
STARLINK-30046          
1 55710U 23026R   23163.91753915 -.00008020  00000+0 -57818-4 0  9990
2 55710  42.9993  12.3792 0003246 274.7356  85.3141 15.71325231 17683
STARLINK-30037          
1 55712U 23026T   23163.89594627  .00023227  00000+0  17974-3 0  9994
2 55712  43.0011  12.2172 0003285 293.4788  66.5734 15.71395854 17686
STARLINK-30063          
1 55713U 23026U   23163.89353315 -.00005709  00000+0 -40142-4 0  9993
2 55713  43.0017  11.3100 0002672 274.7512  85.3051 15.71333299 17697
STARLINK-30059          
1 55714U 23026V   23163.89626853 -.00002135  00000+0 -12830-4 0  9997
2 55714  43.0012  12.2238 0003500 286.4100  73.6383 15.71337593 17687
CREW DRAGON 6           
1 55740U 23027A   23163.48476970  .00014457  00000+0  25436-3 0  9998
2 55740  51.6424 351.8367 0005440  77.7411 321.2340 15.50706807401063
STARLINK-5592           
1 55741U 23028A   23163.92943881  .00000012  00000+0  87730-5 0  9998
2 55741  69.9999 247.8246 0003409 270.1600  89.9169 14.98332840 16326
STARLINK-5594           
1 55742U 23028B   23163.40354260  .00000146  00000+0  20027-4 0  9992
2 55742  69.9991 249.1957 0003471 268.2263  91.8499 14.98331631 16050
STARLINK-5602           
1 55743U 23028C   23163.40771506  .00000152  00000+0  20573-4 0  9992
2 55743  69.9992 249.2097 0003299 270.0396  90.0385 14.98334507 16054
STARLINK-5601           
1 55744U 23028D   23163.93344714  .00000443  00000+0  44910-4 0  9992
2 55744  69.9996 247.8385 0003458 268.2900  91.7862 14.98332078 16138
STARLINK-5565           
1 55745U 23028E   23163.41188922  .00000566  00000+0  55263-4 0  9992
2 55745  69.9993 249.2244 0003593 266.8382  93.2366 14.98332214 16053
STARLINK-5579           
1 55746U 23028F   23163.44108398  .00000022  00000+0  96311-5 0  9992
2 55746  70.0004 248.9295 0003492 267.6820  92.3939 14.98329984 16063
STARLINK-5539           
1 55747U 23028G   23163.52453725  .00000539  00000+0  52992-4 0  9998
2 55747  69.9999 248.8176 0003643 270.2037  89.8705 14.98334649 16076
STARLINK-5580           
1 55748U 23028H   23163.52036434  .00000357  00000+0  37730-4 0  9994
2 55748  70.0000 248.8029 0003667 267.5543  92.5196 14.98333057 16074
STARLINK-5560           
1 55749U 23028J   23163.50383661  .00000143  00000+0  19752-4 0  9997
2 55749  70.0001 248.7442 0003342 269.4737  90.6039 14.98328904 16070
STARLINK-5573           
1 55750U 23028K   23163.51618975  .00000409  00000+0  42112-4 0  9990
2 55750  69.9999 248.7893 0003567 267.5906  92.4845 14.98333824 16073
STARLINK-5577           
1 55751U 23028L   23163.52871101  .00000671  00000+0  64003-4 0  9998
2 55751  69.9999 248.8323 0003275 268.2186  91.8598 14.98334301 16076
STARLINK-5613           
1 55752U 23028M   23163.49114946 -.00000040  00000+0  44329-5 0  9993
2 55752  70.0002 248.6995 0003516 270.2269  89.8487 14.98327969 16077
STARLINK-5617           
1 55753U 23028N   23163.51201946  .00000090  00000+0  15301-4 0  9995
2 55753  69.9998 248.7732 0003432 268.4551  91.6215 14.98327952 16071
STARLINK-5612           
1 55754U 23028P   23163.49949789  .00000919  00000+0  84841-4 0  9992
2 55754  70.0002 248.7306 0003289 270.3736  89.7047 14.98323384 16071
STARLINK-5619           
1 55755U 23028Q   23163.48713954 -.00000213  00000+0 -10067-4 0  9993
2 55755  69.9996 248.6732 0003401 268.1148  91.9621 14.98327964 16072
STARLINK-5614           
1 55756U 23028R   23163.95011704 -.00000005  00000+0  73976-5 0  9997
2 55756  70.0003 247.4909 0003172 265.4580  94.6217 14.98331875 16148
STARLINK-5544           
1 55757U 23028S   23163.43691402 -.00000149  00000+0 -46551-5 0  9999
2 55757  70.0002 248.9131 0003515 270.8828  89.1928 14.98325677 16069
STARLINK-5072           
1 55758U 23028T   23163.49532305  .00000028  00000+0  10122-4 0  9990
2 55758  70.0000 248.7143 0003558 270.1354  89.9397 14.98327040 16078
STARLINK-5081           
1 55759U 23028U   23163.93275611  .00000409  00000+0  99846-5 0  9998
2 55759  69.9989 234.0027 0003804 261.8276  98.2479 15.50556384 16477
STARLINK-5532           
1 55760U 23028V   23163.48296666 -.00000197  00000+0 -87214-5 0  9995
2 55760  70.0000 248.6677 0003227 268.0462  92.0327 14.98327221 16069
STARLINK-5611           
1 55761U 23028W   23164.00001157 -.00832547  00000+0 -15013-1 0  9990
2 55761  69.9997 230.8956 0003346 268.0804 167.0701 15.52080468  1307
STARLINK-5603           
1 55762U 23028X   23164.00001157 -.00836677  00000+0 -15091-1 0  9995
2 55762  69.9997 230.8930 0003331 270.7877 166.8767 15.52086478  1300
STARLINK-5593           
1 55763U 23028Y   23163.48697489 -.00000084  00000+0  77538-6 0  9999
2 55763  70.0001 248.6851 0003495 269.3276  90.7482 14.98326978 16077
STARLINK-5499           
1 55764U 23028Z   23164.00001157 -.00835928  00000+0 -15077-1 0  9999
2 55764  69.9996 230.8933 0003342 271.6548 165.3813 15.52085010  1308
STARLINK-5595           
1 55765U 23028AA  23164.00001157 -.00835695  00000+0 -15073-1 0  9997
2 55765  69.9996 230.8939 0003330 271.1692 165.2381 15.52084062  1302
STARLINK-5599           
1 55766U 23028AB  23164.00001157 -.00808874  00000+0 -14552-1 0  9998
2 55766  69.9997 230.8896 0003421 270.4776 169.7071 15.52074057  1300
STARLINK-5606           
1 55767U 23028AC  23164.00001157 -.00833455  00000+0 -15030-1 0  9994
2 55767  69.9995 230.8949 0003340 269.0110 166.7678 15.52082068  1305
STARLINK-5583           
1 55768U 23028AD  23164.00001157 -.00835627  00000+0 -15070-1 0  9992
2 55768  69.9997 230.8919 0003325 267.9725 170.3204 15.52087174  1306
STARLINK-5584           
1 55769U 23028AE  23164.00001157 -.00809344  00000+0 -14562-1 0  9995
2 55769  69.9995 230.8911 0003452 271.1414 167.7864 15.52072202  1308
STARLINK-5557           
1 55770U 23028AF  23164.00001157 -.00817840  00000+0 -14725-1 0  9998
2 55770  69.9997 230.8903 0003426 269.2363 170.3174 15.52078666  1309
STARLINK-5591           
1 55771U 23028AG  23164.00001157 -.00817924  00000+0 -14725-1 0  9992
2 55771  69.9997 230.8884 0003426 268.4893 172.9502 15.52081778  1308
STARLINK-5835           
1 55772U 23028AH  23164.00001157 -.00811671  00000+0 -14612-1 0  9991
2 55772  69.9996 230.8859 0003405 268.6687 174.6860 15.52064144  1304
STARLINK-5833           
1 55773U 23028AJ  23164.00001157 -.00810666  00000+0 -14586-1 0  9995
2 55773  69.9996 230.8890 0003446 270.9148 169.8984 15.52075773  1306
STARLINK-5812           
1 55774U 23028AK  23164.00001157 -.00811344  00000+0 -14598-1 0  9993
2 55774  69.9996 230.8875 0003442 269.8568 172.2136 15.52078239  1306
STARLINK-5809           
1 55775U 23028AL  23164.00001157 -.00805104  00000+0 -14486-1 0  9997
2 55775  69.9994 230.8866 0003434 270.1843 172.5437 15.52059185  1303
STARLINK-5810           
1 55776U 23028AM  23164.00001157 -.00800008  00000+0 -14394-1 0  9994
2 55776  69.9996 230.8829 0003426 269.3716 176.5280 15.52044651  1307
STARLINK-5814           
1 55777U 23028AN  23164.00001157 -.00805677  00000+0 -14496-1 0  9995
2 55777  69.9999 230.8852 0003431 270.9253 173.0597 15.52061507  1309
STARLINK-5816           
1 55778U 23028AP  23164.00001157 -.00813350  00000+0 -14643-1 0  9997
2 55778  69.9998 230.8845 0003419 268.5288 176.0826 15.52067557  1307
STARLINK-5817           
1 55779U 23028AQ  23163.45998089  .00000978  00000+0  99087-5 0  9996
2 55779  69.9982 231.8818 0003701 264.4180  95.6594 15.69918427 16484
STARLINK-5819           
1 55780U 23028AR  23164.00001157 -.00813257  00000+0 -14641-1 0  9994
2 55780  69.9997 230.8837 0003406 268.6763 176.5639 15.52068017  1304
